CCSDS_OMM_VERS,COMMENT,CREATION_DATE,ORIGINATOR,OBJECT_NAME,OBJECT_ID,CENTER_NAME,REF_FRAME,TIME_SYSTEM,MEAN_ELEMENT_THEORY,EPOCH,MEAN_MOTION,ECCENTRICITY,INCLINATION,RA_OF_ASC_NODE,ARG_OF_PERICENTER,MEAN_ANOMALY,EPHEMERIS_TYPE,CLASSIFICATION_TYPE,NORAD_CAT_ID,ELEMENT_SET_NO,REV_AT_EPOCH,BSTAR,MEAN_MOTION_DOT,MEAN_MOTION_DDOT,SEMIMAJOR_AXIS,PERIOD,APOAPSIS,PERIAPSIS,OBJECT_TYPE,RCS_SIZE,COUNTRY_CODE,LAUNCH_DATE,SITE,DECAY_DATE,FILE,GP_ID,TLE_LINE0,TLE_LINE1,TLE_LINE2,NORAD_KEY
3.0,GENERATED VIA SPACE-TRACK.ORG API,2026-05-06T14:56:52,18 SPCS,EUTE 172A (GE 23),2005-052A,EARTH,TEME,UTC,SGP4,2026-05-06T12:09:00.355104,1.00269403,0.0006617,4.1145,77.0265,326.5882,177.0578,0,U,28924,999,5191,0.00000000000000,0.00000018,0.0000000000000,42165.4,1436.131,35815.166,35759.364,PAYLOAD,LARGE,EUTE,2005-12-29,TTMTR,,5177642,322309025,0 EUTE 172A (GE 23),1 28924U 05052A   26126.50625411  .00000018  00000-0  00000+0 0  9996,2 28924   4.1145  77.0265 0006617 326.5882 177.0578  1.00269403 51919,28924
3.0,GENERATED VIA SPACE-TRACK.ORG API,2026-05-06T14:46:56,18 SPCS,CHINASAT 6A,2010-042A,EARTH,TEME,UTC,SGP4,2026-05-06T11:55:39.866880,0.99704349,0.0003157,4.1189,77.729,283.0008,176.615,0,U,37150,999,5746,0.00000000000000,-0.00000331,0.0000000000000,42324.559,1444.27,35959.786,35933.062,PAYLOAD,LARGE,PRC,2010-09-04,XSC,,5177108,322296663,0 CHINASAT 6A,1 37150U 10042A   26126.49698920 -.00000331  00000-0  00000+0 0  9994,2 37150   4.1189  77.7290 0003157 283.0008 176.6150  0.99704349 57463,37150
3.0,GENERATED VIA SPACE-TRACK.ORG API,2026-05-06T14:46:56,18 SPCS,SYMPHONIE 2,1975-077A,EARTH,TEME,UTC,SGP4,2026-05-06T13:36:05.547168,0.99984624,0.0005287,4.1448,275.1232,60.5272,244.4778,0,U,8132,999,14203,0.00000000000000,-0.00000234,0.0000000000000,42245.426,1440.221,35889.626,35844.956,PAYLOAD,LARGE,FGER,1975-08-27,AFETR,,5177163,322297877,0 SYMPHONIE 2,1  8132U 75077A   26126.56673087 -.00000234  00000-0  00000+0 0  9998,2  8132   4.1448 275.1232 0005287  60.5272 244.4778  0.99984624142030,8132
3.0,GENERATED VIA SPACE-TRACK.ORG API,2026-05-06T14:46:56,18 SPCS,BEIDOU 3,2010-001A,EARTH,TEME,UTC,SGP4,2026-05-06T12:02:34.212768,1.00272854,0.0003453,4.1967,60.5211,303.0952,181.8812,0,U,36287,999,5975,0.00000000000000,-0.00000271,0.0000000000000,42164.432,1436.082,35800.857,35771.738,PAYLOAD,LARGE,PRC,2010-01-16,XSC,,5177100,322296062,0 BEIDOU 3,1 36287U 10001A   26126.50178487 -.00000271  00000-0  00000+0 0  9995,2 36287   4.1967  60.5211 0003453 303.0952 181.8812  1.00272854 59751,36287
3.0,GENERATED VIA SPACE-TRACK.ORG API,2026-05-06T14:56:52,18 SPCS,ANIK F1-R,2005-036A,EARTH,TEME,UTC,SGP4,2026-05-06T12:39:31.851072,1.00272281,0.0003659,4.2065,77.0807,338.6455,251.2756,0,U,28868,999,4603,0.00000000000000,-0.00000067,0.0000000000000,42164.593,1436.09,35801.886,35771.03,PAYLOAD,LARGE,CA,2005-09-08,TTMTR,,5177640,322309498,0 ANIK F1-R,1 28868U 05036A   26126.52745198 -.00000067  00000-0  00000+0 0  9997,2 28868   4.2065  77.0807 0003659 338.6455 251.2756  1.00272281 46031,28868
3.0,GENERATED VIA SPACE-TRACK.ORG API,2026-05-06T14:46:56,18 SPCS,RADUGA 3,1977-071A,EARTH,TEME,UTC,SGP4,2026-05-06T11:40:55.986240,1.0034085,0.0008312,4.2231,274.0726,302.0167,236.7098,0,U,10159,999,17662,0.00000000000000,0.00000092,0.0000000000000,42145.382,1435.108,35802.278,35732.215,PAYLOAD,LARGE,CIS,1977-07-23,TTMTR,,5177188,322298219,0 RADUGA 3,1 10159U 77071A   26126.48675910  .00000092  00000-0  00000+0 0  9995,2 10159   4.2231 274.0726 0008312 302.0167 236.7098  1.00340850176629,10159
3.0,GENERATED VIA SPACE-TRACK.ORG API,2026-05-06T14:56:52,18 SPCS,XTAR-EUR,2005-005A,EARTH,TEME,UTC,SGP4,2026-05-05T20:03:12.187008,0.98996822,0.0004539,4.2322,77.2749,319.1543,40.6518,0,U,28542,999,7773,0.00000000000000,-0.00000025,0.0000000000000,42525.981,1454.592,36167.148,36128.543,PAYLOAD,LARGE,US,2005-02-12,FRGUI,,5177636,322308938,0 XTAR-EUR,1 28542U 05005A   26125.83555772 -.00000025  00000-0  00000+0 0  9996,2 28542   4.2322  77.2749 0004539 319.1543  40.6518  0.98996822 77730,28542
3.0,GENERATED VIA SPACE-TRACK.ORG API,2026-05-06T14:46:56,18 SPCS,SMS 1,1974-033A,EARTH,TEME,UTC,SGP4,2026-05-06T13:32:19.428864,0.98610821,0.0016213,4.2453,248.5434,77.8849,166.9022,0,U,7298,999,11947,0.00000000000000,0.00000058,0.0000000000000,42636.884,1460.286,36327.876,36189.622,PAYLOAD,LARGE,US,1974-05-17,AFETR,,5177151,322297228,0 SMS 1,1  7298U 74033A   26126.56411376  .00000058  00000-0  00000+0 0  9995,2  7298   4.2453 248.5434 0016213  77.8849 166.9022  0.98610821119475,7298
3.0,GENERATED VIA SPACE-TRACK.ORG API,2026-05-06T14:56:52,18 SPCS,TJS-11,2024-037A,EARTH,TEME,UTC,SGP4,2026-05-06T12:00:01.653696,1.00273374,0.0005037,4.2548,326.5574,93.9498,104.2338,0,U,59020,999,816,0.00000000000000,-0.00000364,0.0000000000000,42164.287,1436.074,35807.39,35764.913,PAYLOAD,,PRC,2024-02-23,WSC,,5177588,322307283,0 TJS-11,1 59020U 24037A   26126.50001914 -.00000364  00000-0  00000+0 0  9992,2 59020   4.2548 326.5574 0005037  93.9498 104.2338  1.00273374  8163,59020
3.0,GENERATED VIA SPACE-TRACK.ORG API,2026-05-06T14:46:56,18 SPCS,INMARSAT 4-F3,2008-039A,EARTH,TEME,UTC,SGP4,2026-05-06T08:19:38.786016,1.00272182,0.0003005,4.2588,31.4545,18.3036,201.368,0,U,33278,999,4612,0.00000000000000,-0.00000132,0.0000000000000,42164.621,1436.091,35799.156,35773.815,PAYLOAD,LARGE,IM,2008-08-18,TTMTR,,5177014,322293153,0 INMARSAT 4-F3,1 33278U 08039A   26126.34697669 -.00000132  00000-0  00000+0 0  9996,2 33278   4.2588  31.4545 0003005  18.3036 201.3680  1.00272182 46129,33278
3.0,GENERATED VIA SPACE-TRACK.ORG API,2026-05-06T14:46:56,18 SPCS,BEIDOU 16,2012-059A,EARTH,TEME,UTC,SGP4,2026-05-06T13:51:00.188064,1.00273939,0.0010811,4.317,73.9551,318.9598,123.3202,0,U,38953,999,4949,0.00000000000000,-0.00000168,0.0000000000000,42164.128,1436.066,35831.577,35740.409,PAYLOAD,LARGE,PRC,2012-10-25,XSC,,5177134,322296484,0 BEIDOU 16,1 38953U 12059A   26126.57708551 -.00000168  00000-0  00000+0 0  9995,2 38953   4.3170  73.9551 0010811 318.9598 123.3202  1.00273939 49492,38953
3.0,GENERATED VIA SPACE-TRACK.ORG API,2026-05-06T14:46:56,18 SPCS,SBIRS GEO 2 (USA 241),2013-011A,EARTH,TEME,UTC,SGP4,2026-05-06T06:03:28.910880,1.00271597,0.0002192,4.4006,52.4651,344.9077,227.8126,0,U,39120,999,4811,0.00000000000000,-0.00000278,0.0000000000000,42164.785,1436.1,35795.892,35777.407,PAYLOAD,LARGE,US,2013-03-19,AFETR,,5177137,322297522,0 SBIRS GEO 2 (USA 241),1 39120U 13011A   26126.25241795 -.00000278  00000-0  00000+0 0  9990,2 39120   4.4006  52.4651 0002192 344.9077 227.8126  1.00271597 48116,39120
3.0,GENERATED VIA SPACE-TRACK.ORG API,2026-05-06T10:46:46,18 SPCS,BEIDOU 4,2010-024A,EARTH,TEME,UTC,SGP4,2026-05-05T22:06:56.953728,1.00270081,0.000896,4.4164,61.6822,343.4641,229.9659,0,U,36590,999,5834,0.00000000000000,-0.00000126,0.0000000000000,42165.21,1436.121,35824.855,35749.295,PAYLOAD,LARGE,PRC,2010-06-02,XSC,,5176967,322292380,0 BEIDOU 4,1 36590U 10024A   26125.92149252 -.00000126  00000-0  00000+0 0  9999,2 36590   4.4164  61.6822 0008960 343.4641 229.9659  1.00270081 58348,36590
3.0,GENERATED VIA SPACE-TRACK.ORG API,2026-05-06T15:06:46,18 SPCS,GOES 13,2006-018A,EARTH,TEME,UTC,SGP4,2026-05-06T11:00:22.373856,0.98785818,0.006139,4.4253,76.914,276.6477,307.6727,0,U,29155,999,4283,0.00000000000000,-0.00000010,0.0000000000000,42586.516,1457.699,36469.819,35946.942,PAYLOAD,LARGE,US,2006-05-24,AFETR,,5177734,322311426,0 GOES 13,1 29155U 06018A   26126.45859229 -.00000010  00000-0  00000+0 0  9999,2 29155   4.4253  76.9140 0061390 276.6477 307.6727  0.98785818 42830,29155
3.0,GENERATED VIA SPACE-TRACK.ORG API,2026-05-06T14:46:56,18 SPCS,SBIRS GEO 1 (USA 230),2011-019A,EARTH,TEME,UTC,SGP4,2026-05-06T09:57:51.062112,1.00271942,0.0002162,4.4462,53.1285,344.5035,27.9076,0,U,37481,999,5498,0.00000000000000,0.00000108,0.0000000000000,42164.688,1436.095,35795.669,35777.437,PAYLOAD,LARGE,US,2011-05-07,AFETR,,5177114,322296739,0 SBIRS GEO 1 (USA 230),1 37481U 11019A   26126.41517433  .00000108  00000-0  00000+0 0  9998,2 37481   4.4462  53.1285 0002162 344.5035  27.9076  1.00271942 54987,37481
3.0,GENERATED VIA SPACE-TRACK.ORG API,2026-05-06T14:46:56,18 SPCS,INTELSAT 4-F2,1971-006A,EARTH,TEME,UTC,SGP4,2026-05-06T11:03:37.064160,0.98836558,0.0013352,4.4525,276.8918,97.0191,299.2565,0,U,4881,999,12109,0.00000000000000,-0.00000064,0.0000000000000,42571.939,1456.951,36250.646,36136.962,PAYLOAD,LARGE,ITSO,1971-01-26,AFETR,,5177116,322296754,0 INTELSAT 4-F2,1  4881U 71006A   26126.46084565 -.00000064  00000-0  00000+0 0  9990,2  4881   4.4525 276.8918 0013352  97.0191 299.2565  0.98836558121098,4881
3.0,GENERATED VIA SPACE-TRACK.ORG API,2026-05-06T14:56:52,18 SPCS,AMC-16,2004-048A,EARTH,TEME,UTC,SGP4,2026-05-06T12:15:04.777344,0.99109663,0.0004389,4.4961,76.9392,239.7427,254.567,0,U,28472,999,7807,0.00000000000000,-0.00000238,0.0000000000000,42493.696,1452.936,36134.212,36096.911,PAYLOAD,LARGE,SES,2004-12-17,AFETR,,5177634,322309419,0 AMC-16,1 28472U 04048A   26126.51047196 -.00000238  00000-0  00000+0 0  9992,2 28472   4.4961  76.9392 0004389 239.7427 254.5670  0.99109663 78077,28472
3.0,GENERATED VIA SPACE-TRACK.ORG API,2026-05-06T14:56:52,18 SPCS,SYRACUSE 3A,2005-041B,EARTH,TEME,UTC,SGP4,2026-05-06T11:38:56.177088,1.00275201,0.0003355,4.5387,76.339,327.0892,41.8812,0,U,28885,999,7533,0.00000000000000,0.00000139,0.0000000000000,42163.774,1436.048,35799.785,35771.493,PAYLOAD,LARGE,FR,2005-10-13,FRGUI,,5177640,322309000,0 SYRACUSE 3A,1 28885U 05041B   26126.48537242  .00000139  00000-0  00000+0 0  9995,2 28885   4.5387  76.3390 0003355 327.0892  41.8812  1.00275201 75335,28885
